ONEWEB-0033             
1 45142U 20008M   25059.48364489  .00000622  00000+0  17448-2 0  9998
2 45142  87.8876 130.7182 0002031  97.0838 263.0521 13.10374115246170
ONEWEB-0035             
1 45143U 20008N   25059.59146696 -.00000283  00000+0 -84560-3 0  9994
2 45143  87.8877 130.6922 0002027 101.5181 258.6174 13.10371413246802
ONEWEB-0036             
1 45144U 20008P   25059.42884151  .00001208  00000+0  34237-2 0  9993
2 45144  87.8900 130.6738 0001875 107.1343 252.9989 13.10384299246321
ONEWEB-0038             
1 45145U 20008Q   25059.43022809  .00000146  00000+0  37595-3 0  9990
2 45145  87.8849 115.4996 0002542 111.8917 248.2481 13.11418434248239
ONEWEB-0039             
1 45146U 20008R   25059.48695969  .00000240  00000+0  65191-3 0  9997
2 45146  87.8878 130.6804 0002077 121.5090 238.6240 13.10372549246905
ONEWEB-0040             
1 45147U 20008S   25059.25125100  .00000540  00000+0  15111-2 0  9997
2 45147  87.8887 130.7456 0001961 104.2131 255.9214 13.10374031245792
ONEWEB-0043             
1 45149U 20008U   25059.48198432  .00000585  00000+0  16395-2 0  9996
2 45149  87.8881 130.6924 0001813 117.6474 242.4838 13.10374230246145
ONEWEB-0044             
1 45150U 20008V   25059.43383005 -.00000071  00000+0 -24105-3 0  9996
2 45150  87.8878 130.6954 0001909 111.9099 248.2232 13.10369096246430
